{"type": "FeatureCollection", "features": [ {"type": "Feature", "properties": {"norad_id": 67103, "name": "STARLINK-36256", "group": "last-30-days", "lat": -39.370074880084715, "lon": 105.0850686558321, "alt_km": 352.1269780429757, "timestamp": "2025-12-27T23:26:36.076398+00:00", "meta": {"OBJECT_NAME": "STARLINK-36256", "OBJECT_ID": "2025-299B", "EPOCH": "2025-12-27T12:00:02.000160", "MEAN_MOTION": 15.7502352, "ECCENTRICITY": 0.0001811, "INCLINATION": 42.9989, "RA_OF_ASC_NODE": 226.26, "ARG_OF_PERICENTER": 268.392, "MEAN_ANOMALY": 155.1434, "EPHEMERIS_TYPE": 0, "CLASSIFICATION_TYPE": "U", "NORAD_CAT_ID": 67103, "ELEMENT_SET_NO": 999, "REV_AT_EPOCH": 318, "BSTAR": -0.014427, "MEAN_MOTION_DOT": -0.01922807, "MEAN_MOTION_DDOT": 0}, "tle": {"line1": "1 67103U 25299B   25361.50002315 -.01922807  00000+0 -14427-1 0  9996", "line2": "2 67103  42.9989 226.2600 0001811 268.3920 155.1434 15.75023520  3184"}}, "geometry": {"type": "Point", "coordinates": [105.0850686558321, -39.370074880084715]}}, {"type": "Feature", "properties": {"norad_id": 67104, "name": "STARLINK-36258", "group": "last-30-days", "lat": -39.87633598447957, "lon": 107.07733974666526, "alt_km": 352.0531162067891, "timestamp": "2025-12-27T23:26:36.076408+00:00", "meta": {"OBJECT_NAME": "STARLINK-36258", "OBJECT_ID": "2025-299C", "EPOCH": "2025-12-27T12:00:02.000160", "MEAN_MOTION": 15.75032367, "ECCENTRICITY": 0.0001842, "INCLINATION": 42.9991, "RA_OF_ASC_NODE": 226.2555, "ARG_OF_PERICENTER": 269.0267, "MEAN_ANOMALY": 156.1011, "EPHEMERIS_TYPE": 0, "CLASSIFICATION_TYPE": "U", "NORAD_CAT_ID": 67104, "ELEMENT_SET_NO": 999, "REV_AT_EPOCH": 318, "BSTAR": -0.014305, "MEAN_MOTION_DOT": -0.01909479, "MEAN_MOTION_DDOT": 0}, "tle": {"line1": "1 67104U 25299C   25361.50002315 -.01909479  00000+0 -14305-1 0  9992", "line2": "2 67104  42.9991 226.2555 0001842 269.0267 156.1011 15.75032367  3184"}}, "geometry": {"type": "Point", "coordinates": [107.07733974666526, -39.87633598447957]}}, {"type": "Feature", "properties": {"norad_id": 67105, "name": "STARLINK-36261", "group": "last-30-days", "lat": -40.302912976091925, "lon": 108.89978052743425, "alt_km": 351.95679502026087, "timestamp": "2025-12-27T23:26:36.076420+00:00", "meta": {"OBJECT_NAME": "STARLINK-36261", "OBJECT_ID": "2025-299D", "EPOCH": "2025-12-27T12:00:02.000160", "MEAN_MOTION": 15.7505956, "ECCENTRICITY": 0.0001865, "INCLINATION": 42.999, "RA_OF_ASC_NODE": 226.2524, "ARG_OF_PERICENTER": 265.6968, "MEAN_ANOMALY": 160.8519, "EPHEMERIS_TYPE": 0, "CLASSIFICATION_TYPE": "U", "NORAD_CAT_ID": 67105, "ELEMENT_SET_NO": 999, "REV_AT_EPOCH": 318, "BSTAR": -0.014351, "MEAN_MOTION_DOT": -0.01916801, "MEAN_MOTION_DDOT": 0}, "tle": {"line1": "1 67105U 25299D   25361.50002315 -.01916801  00000+0 -14351-1 0  9991", "line2": "2 67105  42.9990 226.2524 0001865 265.6968 160.8519 15.75059560  3184"}}, "geometry": {"type": "Point", "coordinates": [108.89978052743425, -40.302912976091925]}}, {"type": "Feature", "properties": {"norad_id": 67106, "name": "STARLINK-36259", "group": "last-30-days", "lat": -41.19657637220249, "lon": 113.30478236765431, "alt_km": 352.03944102944206, "timestamp": "2025-12-27T23:26:36.076430+00:00", "meta": {"OBJECT_NAME": "STARLINK-36259", "OBJECT_ID": "2025-299E", "EPOCH": "2025-12-27T12:00:02.000160", "MEAN_MOTION": 15.75075129, "ECCENTRICITY": 0.0001644, "INCLINATION": 42.9989, "RA_OF_ASC_NODE": 226.2435, "ARG_OF_PERICENTER": 261.1949, "MEAN_ANOMALY": 168.7819, "EPHEMERIS_TYPE": 0, "CLASSIFICATION_TYPE": "U", "NORAD_CAT_ID": 67106, "ELEMENT_SET_NO": 999, "REV_AT_EPOCH": 318, "BSTAR": -0.014286, "MEAN_MOTION_DOT": -0.01910181, "MEAN_MOTION_DDOT": 0}, "tle": {"line1": "1 67106U 25299E   25361.50002315 -.01910181  00000+0 -14286-1 0  9994", "line2": "2 67106  42.9989 226.2435 0001644 261.1949 168.7819 15.75075129  3188"}}, "geometry": {"type": "Point", "coordinates": [113.30478236765431, -41.19657637220249]}}, {"type": "Feature", "properties": {"norad_id": 67107, "name": "STARLINK-36196", "group": "last-30-days", "lat": -40.75625761831889, "lon": 111.01601804232503, "alt_km": 351.99445417837705, "timestamp": "2025-12-27T23:26:36.076440+00:00", "meta": {"OBJECT_NAME": "STARLINK-36196", "OBJECT_ID": "2025-299F", "EPOCH": "2025-12-27T12:00:02.000160", "MEAN_MOTION": 15.75074898, "ECCENTRICITY": 0.000178, "INCLINATION": 42.999, "RA_OF_ASC_NODE": 226.2483, "ARG_OF_PERICENTER": 265.5926, "MEAN_ANOMALY": 162.6109, "EPHEMERIS_TYPE": 0, "CLASSIFICATION_TYPE": "U", "NORAD_CAT_ID": 67107, "ELEMENT_SET_NO": 999, "REV_AT_EPOCH": 318, "BSTAR": -0.014389, "MEAN_MOTION_DOT": -0.01922176, "MEAN_MOTION_DDOT": 0}, "tle": {"line1": "1 67107U 25299F   25361.50002315 -.01922176  00000+0 -14389-1 0  9996", "line2": "2 67107  42.9990 226.2483 0001780 265.5926 162.6109 15.75074898  3185"}}, "geometry": {"type": "Point", "coordinates": [111.01601804232503, -40.75625761831889]}}, {"type": "Feature", "properties": {"norad_id": 67108, "name": "STARLINK-36208", "group": "last-30-days", "lat": -41.58888266448867, "lon": 115.60987088082442, "alt_km": 352.06554030580173, "timestamp": "2025-12-27T23:26:36.076450+00:00", "meta": {"OBJECT_NAME": "STARLINK-36208", "OBJECT_ID": "2025-299G", "EPOCH": "2025-12-27T12:00:02.000160", "MEAN_MOTION": 15.75081512, "ECCENTRICITY": 0.0001588, "INCLINATION": 42.999, "RA_OF_ASC_NODE": 226.2389, "ARG_OF_PERICENTER": 260.8248, "MEAN_ANOMALY": 170.917, "EPHEMERIS_TYPE": 0, "CLASSIFICATION_TYPE": "U", "NORAD_CAT_ID": 67108, "ELEMENT_SET_NO": 999, "REV_AT_EPOCH": 318, "BSTAR": -0.014263, "MEAN_MOTION_DOT": -0.01907967, "MEAN_MOTION_DDOT": 0}, "tle": {"line1": "1 67108U 25299G   25361.50002315 -.01907967  00000+0 -14263-1 0  9999", "line2": "2 67108  42.9990 226.2389 0001588 260.8248 170.9170 15.75081512  3183"}}, "geometry": {"type": "Point", "coordinates": [115.60987088082442, -41.58888266448867]}}, {"type": "Feature", "properties": {"norad_id": 67109, "name": "STARLINK-35764", "group": "last-30-days", "lat": -41.95013251376279, "lon": 118.05673825050576, "alt_km": 351.96476415625784, "timestamp": "2025-12-27T23:26:36.076460+00:00", "meta": {"OBJECT_NAME": "STARLINK-35764", "OBJECT_ID": "2025-299H", "EPOCH": "2025-12-27T12:00:02.000160", "MEAN_MOTION": 15.7508236, "ECCENTRICITY": 0.0001781, "INCLINATION": 42.9992, "RA_OF_ASC_NODE": 226.2351, "ARG_OF_PERICENTER": 268.858, "MEAN_ANOMALY": 164.7515, "EPHEMERIS_TYPE": 0, "CLASSIFICATION_TYPE": "U", "NORAD_CAT_ID": 67109, "ELEMENT_SET_NO": 999, "REV_AT_EPOCH": 307, "BSTAR": -0.014256, "MEAN_MOTION_DOT": -0.0190735, "MEAN_MOTION_DDOT": 0}, "tle": {"line1": "1 67109U 25299H   25361.50002315 -.01907350  00000+0 -14256-1 0  9998", "line2": "2 67109  42.9992 226.2351 0001781 268.8580 164.7515 15.75082360  3071"}}, "geometry": {"type": "Point", "coordinates": [118.05673825050576, -41.95013251376279]}}, {"type": "Feature", "properties": {"norad_id": 67110, "name": "STARLINK-35781", "group": "last-30-days", "lat": -42.50410722035236, "lon": 122.92558715188682, "alt_km": 352.01860334209505, "timestamp": "2025-12-27T23:26:36.076472+00:00", "meta": {"OBJECT_NAME": "STARLINK-35781", "OBJECT_ID": "2025-299J", "EPOCH": "2025-12-27T12:00:02.000160", "MEAN_MOTION": 15.75098919, "ECCENTRICITY": 0.0001676, "INCLINATION": 42.999, "RA_OF_ASC_NODE": 226.2254, "ARG_OF_PERICENTER": 263.9403, "MEAN_ANOMALY": 173.3071, "EPHEMERIS_TYPE": 0, "CLASSIFICATION_TYPE": "U", "NORAD_CAT_ID": 67110, "ELEMENT_SET_NO": 999, "REV_AT_EPOCH": 313, "BSTAR": -0.014337, "MEAN_MOTION_DOT": -0.01917885, "MEAN_MOTION_DDOT": 0}, "tle": {"line1": "1 67110U 25299J   25361.50002315 -.01917885  00000+0 -14337-1 0  9994", "line2": "2 67110  42.9990 226.2254 0001676 263.9403 173.3071 15.75098919  3133"}}, "geometry": {"type": "Point", "coordinates": [122.92558715188682, -42.50410722035236]}}, {"type": "Feature", "properties": {"norad_id": 67111, "name": "STARLINK-35875", "group": "last-30-days", "lat": -42.25857614694919, "lon": 120.53120118404631, "alt_km": 352.05393555081446, "timestamp": "2025-12-27T23:26:36.076484+00:00", "meta": {"OBJECT_NAME": "STARLINK-35875", "OBJECT_ID": "2025-299K", "EPOCH": "2025-12-27T12:00:02.000160", "MEAN_MOTION": 15.75092534, "ECCENTRICITY": 0.0001644, "INCLINATION": 42.9989, "RA_OF_ASC_NODE": 226.2298, "ARG_OF_PERICENTER": 262.5828, "MEAN_ANOMALY": 172.8851, "EPHEMERIS_TYPE": 0, "CLASSIFICATION_TYPE": "U", "NORAD_CAT_ID": 67111, "ELEMENT_SET_NO": 999, "REV_AT_EPOCH": 307, "BSTAR": -0.014351, "MEAN_MOTION_DOT": -0.01918965, "MEAN_MOTION_DDOT": 0}, "tle": {"line1": "1 67111U 25299K   25361.50002315 -.01918965  00000+0 -14351-1 0  9991", "line2": "2 67111  42.9989 226.2298 0001644 262.5828 172.8851 15.75092534  3071"}}, "geometry": {"type": "Point", "coordinates": [120.53120118404631, -42.25857614694919]}}, {"type": "Feature", "properties": {"norad_id": 67112, "name": "STARLINK-35906", "group": "last-30-days", "lat": -42.68284330757179, "lon": 125.10791595229742, "alt_km": 351.9577281110569, "timestamp": "2025-12-27T23:26:36.076494+00:00", "meta": {"OBJECT_NAME": "STARLINK-35906", "OBJECT_ID": "2025-299L", "EPOCH": "2025-12-27T12:00:02.000160", "MEAN_MOTION": 15.7511366, "ECCENTRICITY": 0.0001711, "INCLINATION": 42.999, "RA_OF_ASC_NODE": 226.2216, "ARG_OF_PERICENTER": 267.5958, "MEAN_ANOMALY": 171.2482, "EPHEMERIS_TYPE": 0, "CLASSIFICATION_TYPE": "U", "NORAD_CAT_ID": 67112, "ELEMENT_SET_NO": 999, "REV_AT_EPOCH": 307, "BSTAR": -0.014318, "MEAN_MOTION_DOT": -0.01916812, "MEAN_MOTION_DDOT": 0}, "tle": {"line1": "1 67112U 25299L   25361.50002315 -.01916812  00000+0 -14318-1 0  9994", "line2": "2 67112  42.9990 226.2216 0001711 267.5958 171.2482 15.75113660  3075"}}, "geometry": {"type": "Point", "coordinates": [125.10791595229742, -42.68284330757179]}}]}